start=new Date('2022-06-25T00:00:00.000Z').valueOf();
sats=[{"APOAPSIS":"548.142","COUNTRY_CODE":"US","BSTAR":"0.00001289300000","ELEMENT_SET_NO":"999","OBJECT_ID":"2021-024R","CLASSIFICATION_TYPE":"U","NORAD_CAT_ID":"47992","MEAN_ANOMALY":"297.8059","CENTER_NAME":"EARTH","SEMIMAJOR_AXIS":"6925.331","TLE_LINE2":"2 47992  53.0542 214.3492 0001366  62.3069 297.8059 15.06405690 71575","GP_ID":"206788286","MEAN_MOTION_DDOT":"0.0000000000000","REF_FRAME":"TEME","REV_AT_EPOCH":"7157","INCLINATION":"53.0542","RA_OF_ASC_NODE":"214.3492","PERIOD":"95.592","MEAN_ELEMENT_THEORY":"SGP4","TLE_LINE1":"1 47992U 21024R   22175.84562244 -.00000089  00000-0  12893-4 0  9997","LAUNCH_DATE":"2021-03-24","TIME_SYSTEM":"UTC","MEAN_MOTION_DOT":"-0.00000089","RCS_SIZE":"LARGE","EPOCH":"2022-06-24T20:17:41.778816","PERIAPSIS":"546.250","ARG_OF_PERICENTER":"62.3069","FILE":"3501798","OBJECT_TYPE":"PAYLOAD","ECCENTRICITY":"0.00013660","MEAN_MOTION":"15.06405690","SITE":"AFETR","OBJECT_NAME":"STARLINK-2229","EPHEMERIS_TYPE":"0","DECAY_DATE":null},{"MEAN_ANOMALY":"289.5074","NORAD_CAT_ID":"47993","CLASSIFICATION_TYPE":"U","COUNTRY_CODE":"US","APOAPSIS":"548.214","OBJECT_ID":"2021-024S","ELEMENT_SET_NO":"999","BSTAR":"0.00013681000000","REF_FRAME":"TEME","TLE_LINE2":"2 47993  53.0545 254.8378 0001402  70.6066 289.5074 15.06390501 71042","SEMIMAJOR_AXIS":"6925.378","MEAN_MOTION_DDOT":"0.0000000000000","GP_ID":"206787035","CENTER_NAME":"EARTH","ARG_OF_PERICENTER":"70.6066","PERIAPSIS":"546.272","FILE":"3501798","RCS_SIZE":"LARGE","EPOCH":"2022-06-24T17:17:14.089344","LAUNCH_DATE":"2021-03-24","TIME_SYSTEM":"UTC","MEAN_MOTION_DOT":"0.00001756","INCLINATION":"53.0545","REV_AT_EPOCH":"7104","TLE_LINE1":"1 47993U 21024S   22175.72030196  .00001756  00000-0  13681-3 0  9997","PERIOD":"95.593","MEAN_ELEMENT_THEORY":"SGP4","RA_OF_ASC_NODE":"254.8378","OBJECT_NAME":"STARLINK-2273","DECAY_DATE":null,"EPHEMERIS_TYPE":"0","SITE":"AFETR","ECCENTRICITY":"0.00014020","MEAN_MOTION":"15.06390501","OBJECT_TYPE":"PAYLOAD"},{"CENTER_NAME":"EARTH","GP_ID":"206729490","MEAN_MOTION_DDOT":"0.0000000000000","SEMIMAJOR_AXIS":"6925.341","TLE_LINE2":"2 47994  53.0533 270.7073 0001447  80.2431 279.8721 15.06402406 70285","REF_FRAME":"TEME","ELEMENT_SET_NO":"999","BSTAR":"0.00013208000000","OBJECT_ID":"2021-024T","APOAPSIS":"548.208","COUNTRY_CODE":"US","CLASSIFICATION_TYPE":"U","NORAD_CAT_ID":"47994","MEAN_ANOMALY":"279.8721","OBJECT_TYPE":"PAYLOAD","MEAN_MOTION":"15.06402406","ECCENTRICITY":"0.00014470","SITE":"AFETR","EPHEMERIS_TYPE":"0","DECAY_DATE":null,"OBJECT_NAME":"STARLINK-2290","PERIOD":"95.592","RA_OF_ASC_NODE":"270.7073","MEAN_ELEMENT_THEORY":"SGP4","TLE_LINE1":"1 47994U 21024T   22175.52540240  .00001686  00000-0  13208-3 0  9999","REV_AT_EPOCH":"7028","INCLINATION":"53.0533","MEAN_MOTION_DOT":"0.00001686","LAUNCH_DATE":"2021-03-24","TIME_SYSTEM":"UTC","EPOCH":"2022-06-24T12:36:34.767360","RCS_SIZE":"LARGE","FILE":"3501316","PERIAPSIS":"546.204","ARG_OF_PERICENTER":"80.2431"},{"MEAN_ANOMALY":"292.3459","NORAD_CAT_ID":"47995","CLASSIFICATION_TYPE":"U","APOAPSIS":"548.189","COUNTRY_CODE":"US","BSTAR":"-0.00011108000000","ELEMENT_SET_NO":"999","OBJECT_ID":"2021-024U","REF_FRAME":"TEME","SEMIMAJOR_AXIS":"6925.348","TLE_LINE2":"2 47995  53.0537 234.4897 0001409  67.7679 292.3459 15.06400121 71295","GP_ID":"206787536","MEAN_MOTION_DDOT":"0.0000000000000","CENTER_NAME":"EARTH","PERIAPSIS":"546.237","ARG_OF_PERICENTER":"67.7679","FILE":"3501798","RCS_SIZE":"LARGE","EPOCH":"2022-06-24T20:46:57.085536","LAUNCH_DATE":"2021-03-24","TIME_SYSTEM":"UTC","MEAN_MOTION_DOT":"-0.00001936","REV_AT_EPOCH":"7129","INCLINATION":"53.0537","RA_OF_ASC_NODE":"234.4897","PERIOD":"95.592","MEAN_ELEMENT_THEORY":"SGP4","TLE_LINE1":"1 47995U 21024U   22175.86593849 -.00001936  00000-0 -11108-3 0  9997","OBJECT_NAME":"STARLINK-2309","EPHEMERIS_TYPE":"0","DECAY_DATE":null,"SITE":"AFETR","ECCENTRICITY":"0.00014090","MEAN_MOTION":"15.06400121","OBJECT_TYPE":"PAYLOAD"},{"SITE":"AFETR","OBJECT_NAME":"STARLINK-2260","DECAY_DATE":null,"EPHEMERIS_TYPE":"0","OBJECT_TYPE":"PAYLOAD","ECCENTRICITY":"0.00016820","MEAN_MOTION":"15.06379260","RCS_SIZE":"LARGE","EPOCH":"2022-06-24T22:00:01.999584","ARG_OF_PERICENTER":"62.0813","PERIAPSIS":"546.112","FILE":"3501798","INCLINATION":"53.0532","REV_AT_EPOCH":"130","TLE_LINE1":"1 47996U 21024V   22175.91668981  .00032982  00000-0  22240-2 0  9995","PERIOD":"95.593","RA_OF_ASC_NODE":"159.2326","MEAN_ELEMENT_THEORY":"SGP4","LAUNCH_DATE":"2021-03-24","TIME_SYSTEM":"UTC","MEAN_MOTION_DOT":"0.00032982","TLE_LINE2":"2 47996  53.0532 159.2326 0001682  62.0813 345.9263 15.06379260  1305","SEMIMAJOR_AXIS":"6925.412","MEAN_MOTION_DDOT":"0.0000000000000","GP_ID":"206787786","REF_FRAME":"TEME","CENTER_NAME":"EARTH","NORAD_CAT_ID":"47996","MEAN_ANOMALY":"345.9263","COUNTRY_CODE":"US","APOAPSIS":"548.442","OBJECT_ID":"2021-024V","BSTAR":"0.00222400000000","ELEMENT_SET_NO":"999","CLASSIFICATION_TYPE":"U"},{"RCS_SIZE":"LARGE","EPOCH":"2022-06-24T13:45:35.086464","PERIAPSIS":"546.323","ARG_OF_PERICENTER":"83.9537","FILE":"3501798","REV_AT_EPOCH":"7081","INCLINATION":"53.0530","PERIOD":"95.592","MEAN_ELEMENT_THEORY":"SGP4","RA_OF_ASC_NODE":"270.4842","TLE_LINE1":"1 47997U 21024W   22175.57332276  .00001341  00000-0  10891-3 0  9998","LAUNCH_DATE":"2021-03-24","TIME_SYSTEM":"UTC","MEAN_MOTION_DOT":"0.00001341","SITE":"AFETR","OBJECT_NAME":"STARLINK-2266","EPHEMERIS_TYPE":"0","DECAY_DATE":null,"OBJECT_TYPE":"PAYLOAD","ECCENTRICITY":"0.00012950","MEAN_MOTION":"15.06398100","NORAD_CAT_ID":"47997","MEAN_ANOMALY":"276.1599","APOAPSIS":"548.116","COUNTRY_CODE":"US","BSTAR":"0.00010891000000","ELEMENT_SET_NO":"999","OBJECT_ID":"2021-024W","CLASSIFICATION_TYPE":"U","SEMIMAJOR_AXIS":"6925.354","TLE_LINE2":"2 47997  53.0530 270.4842 0001295  83.9537 276.1599 15.06398100 70811","GP_ID":"206786535","MEAN_MOTION_DDOT":"0.0000000000000","REF_FRAME":"TEME","CENTER_NAME":"EARTH"},{"MEAN_MOTION_DOT":"0.00001288","TIME_SYSTEM":"UTC","LAUNCH_DATE":"2021-03-24","TLE_LINE1":"1 47998U 21024X   22175.51484522  .00001288  00000-0  10535-3 0  9990","PERIOD":"95.593","MEAN_ELEMENT_THEORY":"SGP4","RA_OF_ASC_NODE":"245.9889","INCLINATION":"53.0543","REV_AT_EPOCH":"7062","FILE":"3501318","ARG_OF_PERICENTER":"68.3116","PERIAPSIS":"546.196","EPOCH":"2022-06-24T12:21:22.627008","RCS_SIZE":"LARGE","MEAN_MOTION":"15.06389213","ECCENTRICITY":"0.00015170","OBJECT_TYPE":"PAYLOAD","DECAY_DATE":null,"EPHEMERIS_TYPE":"0","OBJECT_NAME":"STARLINK-2296","SITE":"AFETR","CLASSIFICATION_TYPE":"U","OBJECT_ID":"2021-024X","BSTAR":"0.00010535000000","ELEMENT_SET_NO":"999","COUNTRY_CODE":"US","APOAPSIS":"548.297","MEAN_ANOMALY":"291.8035","NORAD_CAT_ID":"47998","CENTER_NAME":"EARTH","REF_FRAME":"TEME","MEAN_MOTION_DDOT":"0.0000000000000","GP_ID":"206730017","TLE_LINE2":"2 47998  53.0543 245.9889 0001517  68.3116 291.8035 15.06389213 70624","SEMIMAJOR_AXIS":"6925.382"},{"OBJECT_TYPE":"PAYLOAD","MEAN_MOTION":"15.06397303","ECCENTRICITY":"0.00014190","SITE":"AFETR","DECAY_DATE":null,"EPHEMERIS_TYPE":"0","OBJECT_NAME":"STARLINK-2218","TLE_LINE1":"1 47999U 21024Y   22175.79676084  .00000155  00000-0  29286-4 0  9993","MEAN_ELEMENT_THEORY":"SGP4","PERIOD":"95.592","RA_OF_ASC_NODE":"214.4888","INCLINATION":"53.0528","REV_AT_EPOCH":"7155","MEAN_MOTION_DOT":"0.00000155","TIME_SYSTEM":"UTC","LAUNCH_DATE":"2021-03-24","EPOCH":"2022-06-24T19:07:20.136576","RCS_SIZE":"LARGE","FILE":"3501798","ARG_OF_PERICENTER":"68.3877","PERIAPSIS":"546.239","CENTER_NAME":"EARTH","MEAN_MOTION_DDOT":"0.0000000000000","GP_ID":"206788036","TLE_LINE2":"2 47999  53.0528 214.4888 0001419  68.3877 291.7263 15.06397303 71557","SEMIMAJOR_AXIS":"6925.357","REF_FRAME":"TEME","OBJECT_ID":"2021-024Y","BSTAR":"0.00002928600000","ELEMENT_SET_NO":"999","COUNTRY_CODE":"US","APOAPSIS":"548.205","CLASSIFICATION_TYPE":"U","NORAD_CAT_ID":"47999","MEAN_ANOMALY":"291.7263"},{"CLASSIFICATION_TYPE":"U","OBJECT_ID":"2021-024Z","BSTAR":"-0.00001870700000","ELEMENT_SET_NO":"999","COUNTRY_CODE":"US","APOAPSIS":"548.493","MEAN_ANOMALY":"310.0303","NORAD_CAT_ID":"48000","CENTER_NAME":"EARTH","REF_FRAME":"TEME","MEAN_MOTION_DDOT":"0.0000000000000","GP_ID":"206788287","TLE_LINE2":"2 48000  53.0554 199.7032 0001842  50.0848 310.0303 15.06398835 71777","SEMIMAJOR_AXIS":"6925.352","MEAN_MOTION_DOT":"-0.00000560","TIME_SYSTEM":"UTC","LAUNCH_DATE":"2021-03-24","TLE_LINE1":"1 48000U 21024Z   22175.79358801 -.00000560  00000-0 -18707-4 0  9999","RA_OF_ASC_NODE":"199.7032","PERIOD":"95.592","MEAN_ELEMENT_THEORY":"SGP4","INCLINATION":"53.0554","REV_AT_EPOCH":"7177","FILE":"3501798","ARG_OF_PERICENTER":"50.0848","PERIAPSIS":"545.941","EPOCH":"2022-06-24T19:02:46.004064","RCS_SIZE":"LARGE","MEAN_MOTION":"15.06398835","ECCENTRICITY":"0.00018420","OBJECT_TYPE":"PAYLOAD","DECAY_DATE":null,"EPHEMERIS_TYPE":"0","OBJECT_NAME":"STARLINK-2270","SITE":"AFETR"},{"MEAN_MOTION_DOT":"0.00000505","TIME_SYSTEM":"UTC","LAUNCH_DATE":"2021-03-24","TLE_LINE1":"1 48002U 21024AB  22175.82125228  .00000505  00000-0  52782-4 0  9998","PERIOD":"95.593","RA_OF_ASC_NODE":"219.6931","MEAN_ELEMENT_THEORY":"SGP4","INCLINATION":"53.0550","REV_AT_EPOCH":"7148","FILE":"3501798","ARG_OF_PERICENTER":"72.8429","PERIAPSIS":"546.263","EPOCH":"2022-06-24T19:42:36.196992","RCS_SIZE":"LARGE","MEAN_MOTION":"15.06388163","ECCENTRICITY":"0.00014250","OBJECT_TYPE":"PAYLOAD","DECAY_DATE":null,"EPHEMERIS_TYPE":"0","OBJECT_NAME":"STARLINK-2265","SITE":"AFETR","CLASSIFICATION_TYPE":"U","OBJECT_ID":"2021-024AB","ELEMENT_SET_NO":"999","BSTAR":"0.00005278200000","COUNTRY_CODE":"US","APOAPSIS":"548.237","MEAN_ANOMALY":"287.2716","NORAD_CAT_ID":"48002","CENTER_NAME":"EARTH","REF_FRAME":"TEME","MEAN_MOTION_DDOT":"0.0000000000000","GP_ID":"206787036","TLE_LINE2":"2 48002  53.0550 219.6931 0001425  72.8429 287.2716 15.06388163 71483","SEMIMAJOR_AXIS":"6925.385"}];
